[{"OBJECT_NAME":"ONEWEB-0411","OBJECT_ID":"2022-012B","EPOCH":"2025-09-23T05:16:38.636832","MEAN_MOTION":13.10370286,"ECCENTRICITY":0.00016862,"INCLINATION":87.8735,"RA_OF_ASC_NODE":89.5019,"ARG_OF_PERICENTER":108.8737,"MEAN_ANOMALY":251.2573,"EPHEMERIS_TYPE":0,"CLASSIFICATION_TYPE":"U","NORAD_CAT_ID":51623,"ELEMENT_SET_NO":999,"REV_AT_EPOCH":17432,"BSTAR":-0.00087227323,"MEAN_MOTION_DOT":-2.92e-6,"MEAN_MOTION_DDOT":0},{"OBJECT_NAME":"ONEWEB-0415","OBJECT_ID":"2022-012C","EPOCH":"2025-09-23T05:11:51.806112","MEAN_MOTION":13.10369703,"ECCENTRICITY":0.00016736,"INCLINATION":87.8731,"RA_OF_ASC_NODE":89.5048,"ARG_OF_PERICENTER":99.3363,"MEAN_ANOMALY":260.7954,"EPHEMERIS_TYPE":0,"CLASSIFICATION_TYPE":"U","NORAD_CAT_ID":51624,"ELEMENT_SET_NO":999,"REV_AT_EPOCH":17432,"BSTAR":-0.00041270944,"MEAN_MOTION_DOT":-1.31e-6,"MEAN_MOTION_DDOT":0},{"OBJECT_NAME":"ONEWEB-0416","OBJECT_ID":"2022-012D","EPOCH":"2025-09-23T05:28:35.091552","MEAN_MOTION":13.10371578,"ECCENTRICITY":0.00016901,"INCLINATION":87.8737,"RA_OF_ASC_NODE":89.5226,"ARG_OF_PERICENTER":89.5213,"MEAN_ANOMALY":270.6108,"EPHEMERIS_TYPE":0,"CLASSIFICATION_TYPE":"U","NORAD_CAT_ID":51625,"ELEMENT_SET_NO":999,"REV_AT_EPOCH":17436,"BSTAR":-0.0016628979,"MEAN_MOTION_DOT":-5.68e-6,"MEAN_MOTION_DDOT":0},{"OBJECT_NAME":"ONEWEB-0422","OBJECT_ID":"2022-012E","EPOCH":"2025-09-22T16:54:09.739296","MEAN_MOTION":13.17647758,"ECCENTRICITY":9.616e-5,"INCLINATION":87.9063,"RA_OF_ASC_NODE":59.0453,"ARG_OF_PERICENTER":93.5921,"MEAN_ANOMALY":266.5321,"EPHEMERIS_TYPE":0,"CLASSIFICATION_TYPE":"U","NORAD_CAT_ID":51626,"ELEMENT_SET_NO":999,"REV_AT_EPOCH":17858,"BSTAR":-8.252881e-6,"MEAN_MOTION_DOT":1.0e-7,"MEAN_MOTION_DDOT":0},{"OBJECT_NAME":"ONEWEB-0423","OBJECT_ID":"2022-012F","EPOCH":"2025-09-22T22:12:29.000160","MEAN_MOTION":13.17647074,"ECCENTRICITY":0.00016333,"INCLINATION":87.9066,"RA_OF_ASC_NODE":59.0103,"ARG_OF_PERICENTER":90.9254,"MEAN_ANOMALY":269.2065,"EPHEMERIS_TYPE":0,"CLASSIFICATION_TYPE":"U","NORAD_CAT_ID":51627,"ELEMENT_SET_NO":999,"REV_AT_EPOCH":17850,"BSTAR":-0.00018741416,"MEAN_MOTION_DOT":-6.0e-7,"MEAN_MOTION_DDOT":0},{"OBJECT_NAME":"ONEWEB-0425","OBJECT_ID":"2022-012G","EPOCH":"2025-09-23T00:13:04.181952","MEAN_MOTION":13.10374451,"ECCENTRICITY":0.00018832,"INCLINATION":87.874,"RA_OF_ASC_NODE":89.5359,"ARG_OF_PERICENTER":79.841,"MEAN_ANOMALY":280.293,"EPHEMERIS_TYPE":0,"CLASSIFICATION_TYPE":"U","NORAD_CAT_ID":51628,"ELEMENT_SET_NO":999,"REV_AT_EPOCH":17433,"BSTAR":-0.0014702571,"MEAN_MOTION_DOT":-5.01e-6,"MEAN_MOTION_DDOT":0},{"OBJECT_NAME":"ONEWEB-0428","OBJECT_ID":"2022-012H","EPOCH":"2025-09-23T05:14:15.097920","MEAN_MOTION":13.10369699,"ECCENTRICITY":0.00014671,"INCLINATION":87.8734,"RA_OF_ASC_NODE":89.5153,"ARG_OF_PERICENTER":91.2088,"MEAN_ANOMALY":268.9207,"EPHEMERIS_TYPE":0,"CLASSIFICATION_TYPE":"U","NORAD_CAT_ID":51629,"ELEMENT_SET_NO":999,"REV_AT_EPOCH":17432,"BSTAR":-0.00066490082,"MEAN_MOTION_DOT":-2.19e-6,"MEAN_MOTION_DDOT":0},{"OBJECT_NAME":"ONEWEB-0431","OBJECT_ID":"2022-012J","EPOCH":"2025-09-22T13:51:24.889824","MEAN_MOTION":13.10387781,"ECCENTRICITY":0.00017154,"INCLINATION":87.8744,"RA_OF_ASC_NODE":89.6161,"ARG_OF_PERICENTER":103.2648,"MEAN_ANOMALY":256.8671,"EPHEMERIS_TYPE":0,"CLASSIFICATION_TYPE":"U","NORAD_CAT_ID":51630,"ELEMENT_SET_NO":999,"REV_AT_EPOCH":17429,"BSTAR":-0.0042965163,"MEAN_MOTION_DOT":-1.487e-5,"MEAN_MOTION_DDOT":0},{"OBJECT_NAME":"ONEWEB-0434","OBJECT_ID":"2022-012K","EPOCH":"2025-09-22T18:47:59.638560","MEAN_MOTION":13.10375508,"ECCENTRICITY":0.0002077,"INCLINATION":87.8743,"RA_OF_ASC_NODE":89.6166,"ARG_OF_PERICENTER":73.244,"MEAN_ANOMALY":286.8915,"EPHEMERIS_TYPE":0,"CLASSIFICATION_TYPE":"U","NORAD_CAT_ID":51631,"ELEMENT_SET_NO":999,"REV_AT_EPOCH":17430,"BSTAR":-0.0009714779,"MEAN_MOTION_DOT":-3.26e-6,"MEAN_MOTION_DDOT":0},{"OBJECT_NAME":"ONEWEB-0435","OBJECT_ID":"2022-012L","EPOCH":"2025-09-22T18:59:57.232896","MEAN_MOTION":13.10375398,"ECCENTRICITY":0.00012165,"INCLINATION":87.8742,"RA_OF_ASC_NODE":89.6064,"ARG_OF_PERICENTER":85.5929,"MEAN_ANOMALY":274.5338,"EPHEMERIS_TYPE":0,"CLASSIFICATION_TYPE":"U","NORAD_CAT_ID":51632,"ELEMENT_SET_NO":999,"REV_AT_EPOCH":17429,"BSTAR":-9.4128085e-5,"MEAN_MOTION_DOT":-2.0e-7,"MEAN_MOTION_DDOT":0},{"OBJECT_NAME":"ONEWEB-0436","OBJECT_ID":"2022-012M","EPOCH":"2025-09-22T22:00:20.082240","MEAN_MOTION":13.17647326,"ECCENTRICITY":0.0001487,"INCLINATION":87.9061,"RA_OF_ASC_NODE":58.992,"ARG_OF_PERICENTER":97.9302,"MEAN_ANOMALY":262.1999,"EPHEMERIS_TYPE":0,"CLASSIFICATION_TYPE":"U","NORAD_CAT_ID":51633,"ELEMENT_SET_NO":999,"REV_AT_EPOCH":17848,"BSTAR":-9.2104e-5,"MEAN_MOTION_DOT":-2.3e-7,"MEAN_MOTION_DDOT":0},{"OBJECT_NAME":"ONEWEB-0438","OBJECT_ID":"2022-012N","EPOCH":"2025-09-23T05:35:45.483648","MEAN_MOTION":13.10373097,"ECCENTRICITY":0.00017767,"INCLINATION":87.8737,"RA_OF_ASC_NODE":89.5189,"ARG_OF_PERICENTER":83.7043,"MEAN_ANOMALY":276.4286,"EPHEMERIS_TYPE":0,"CLASSIFICATION_TYPE":"U","NORAD_CAT_ID":51634,"ELEMENT_SET_NO":999,"REV_AT_EPOCH":17438,"BSTAR":-0.0018065948,"MEAN_MOTION_DOT":-6.18e-6,"MEAN_MOTION_DDOT":0},{"OBJECT_NAME":"ONEWEB-0439","OBJECT_ID":"2022-012P","EPOCH":"2025-09-23T00:10:40.540224","MEAN_MOTION":13.10373818,"ECCENTRICITY":0.00015912,"INCLINATION":87.8742,"RA_OF_ASC_NODE":89.5526,"ARG_OF_PERICENTER":85.4299,"MEAN_ANOMALY":274.701,"EPHEMERIS_TYPE":0,"CLASSIFICATION_TYPE":"U","NORAD_CAT_ID":51635,"ELEMENT_SET_NO":999,"REV_AT_EPOCH":17433,"BSTAR":-0.0016241929,"MEAN_MOTION_DOT":-5.54e-6,"MEAN_MOTION_DDOT":0},{"OBJECT_NAME":"ONEWEB-0442","OBJECT_ID":"2022-012Q","EPOCH":"2025-09-22T23:38:45.586176","MEAN_MOTION":13.1764936,"ECCENTRICITY":0.00023163,"INCLINATION":87.9055,"RA_OF_ASC_NODE":59.0323,"ARG_OF_PERICENTER":88.2092,"MEAN_ANOMALY":271.9304,"EPHEMERIS_TYPE":0,"CLASSIFICATION_TYPE":"U","NORAD_CAT_ID":51636,"ELEMENT_SET_NO":999,"REV_AT_EPOCH":17848,"BSTAR":-0.00015499656,"MEAN_MOTION_DOT":-4.7e-7,"MEAN_MOTION_DDOT":0},{"OBJECT_NAME":"ONEWEB-0443","OBJECT_ID":"2022-012R","EPOCH":"2025-09-22T18:38:39.881472","MEAN_MOTION":13.17648308,"ECCENTRICITY":0.00017541,"INCLINATION":87.905,"RA_OF_ASC_NODE":59.0806,"ARG_OF_PERICENTER":83.3553,"MEAN_ANOMALY":276.7778,"EPHEMERIS_TYPE":0,"CLASSIFICATION_TYPE":"U","NORAD_CAT_ID":51637,"ELEMENT_SET_NO":999,"REV_AT_EPOCH":17850,"BSTAR":0.001063928,"MEAN_MOTION_DOT":4.26e-6,"MEAN_MOTION_DDOT":0},{"OBJECT_NAME":"ONEWEB-0444","OBJECT_ID":"2022-012S","EPOCH":"2025-09-22T22:06:22.735008","MEAN_MOTION":13.10371397,"ECCENTRICITY":0.00015044,"INCLINATION":87.8735,"RA_OF_ASC_NODE":89.5697,"ARG_OF_PERICENTER":84.7258,"MEAN_ANOMALY":275.4041,"EPHEMERIS_TYPE":0,"CLASSIFICATION_TYPE":"U","NORAD_CAT_ID":51638,"ELEMENT_SET_NO":999,"REV_AT_EPOCH":17433,"BSTAR":-0.0017211325,"MEAN_MOTION_DOT":-5.88e-6,"MEAN_MOTION_DDOT":0},{"OBJECT_NAME":"ONEWEB-0445","OBJECT_ID":"2022-012T","EPOCH":"2025-09-23T00:27:25.405056","MEAN_MOTION":13.10377277,"ECCENTRICITY":0.0001785,"INCLINATION":87.8757,"RA_OF_ASC_NODE":89.5047,"ARG_OF_PERICENTER":90.7545,"MEAN_ANOMALY":269.3787,"EPHEMERIS_TYPE":0,"CLASSIFICATION_TYPE":"U","NORAD_CAT_ID":51639,"ELEMENT_SET_NO":999,"REV_AT_EPOCH":17435,"BSTAR":-0.00013489714,"MEAN_MOTION_DOT":-3.4e-7,"MEAN_MOTION_DDOT":0},{"OBJECT_NAME":"ONEWEB-0446","OBJECT_ID":"2022-012U","EPOCH":"2025-09-23T05:23:48.555456","MEAN_MOTION":13.10371065,"ECCENTRICITY":0.00017492,"INCLINATION":87.8737,"RA_OF_ASC_NODE":89.5246,"ARG_OF_PERICENTER":94.8085,"MEAN_ANOMALY":265.3243,"EPHEMERIS_TYPE":0,"CLASSIFICATION_TYPE":"U","NORAD_CAT_ID":51640,"ELEMENT_SET_NO":999,"REV_AT_EPOCH":17436,"BSTAR":-0.0014993947,"MEAN_MOTION_DOT":-5.11e-6,"MEAN_MOTION_DDOT":0},{"OBJECT_NAME":"ONEWEB-0448","OBJECT_ID":"2022-012V","EPOCH":"2025-09-23T05:30:58.283136","MEAN_MOTION":13.10372072,"ECCENTRICITY":0.00015515,"INCLINATION":87.8737,"RA_OF_ASC_NODE":89.5229,"ARG_OF_PERICENTER":86.5913,"MEAN_ANOMALY":273.5392,"EPHEMERIS_TYPE":0,"CLASSIFICATION_TYPE":"U","NORAD_CAT_ID":51641,"ELEMENT_SET_NO":999,"REV_AT_EPOCH":17433,"BSTAR":-0.001717997,"MEAN_MOTION_DOT":-5.87e-6,"MEAN_MOTION_DDOT":0},{"OBJECT_NAME":"ONEWEB-0449","OBJECT_ID":"2022-012W","EPOCH":"2025-09-23T00:08:17.346048","MEAN_MOTION":13.10373507,"ECCENTRICITY":0.000197,"INCLINATION":87.8735,"RA_OF_ASC_NODE":89.5388,"ARG_OF_PERICENTER":76.4553,"MEAN_ANOMALY":283.6794,"EPHEMERIS_TYPE":0,"CLASSIFICATION_TYPE":"U","NORAD_CAT_ID":51642,"ELEMENT_SET_NO":999,"REV_AT_EPOCH":17431,"BSTAR":-0.0017801331,"MEAN_MOTION_DOT":-6.09e-6,"MEAN_MOTION_DDOT":0},{"OBJECT_NAME":"ONEWEB-0451","OBJECT_ID":"2022-012X","EPOCH":"2025-09-22T20:06:07.388064","MEAN_MOTION":13.17648981,"ECCENTRICITY":0.00018077,"INCLINATION":87.9066,"RA_OF_ASC_NODE":59.0012,"ARG_OF_PERICENTER":89.395,"MEAN_ANOMALY":270.7389,"EPHEMERIS_TYPE":0,"CLASSIFICATION_TYPE":"U","NORAD_CAT_ID":51643,"ELEMENT_SET_NO":999,"REV_AT_EPOCH":17845,"BSTAR":-0.00024202893,"MEAN_MOTION_DOT":-8.1e-7,"MEAN_MOTION_DDOT":0},{"OBJECT_NAME":"ONEWEB-0452","OBJECT_ID":"2022-012Y","EPOCH":"2025-09-22T20:03:42.052032","MEAN_MOTION":13.17647771,"ECCENTRICITY":0.00017336,"INCLINATION":87.9058,"RA_OF_ASC_NODE":59.063,"ARG_OF_PERICENTER":84.3383,"MEAN_ANOMALY":275.7946,"EPHEMERIS_TYPE":0,"CLASSIFICATION_TYPE":"U","NORAD_CAT_ID":51644,"ELEMENT_SET_NO":999,"REV_AT_EPOCH":17846,"BSTAR":-0.00010933252,"MEAN_MOTION_DOT":-3.0e-7,"MEAN_MOTION_DDOT":0},{"OBJECT_NAME":"ONEWEB-0456","OBJECT_ID":"2022-012AA","EPOCH":"2025-09-23T00:22:37.837344","MEAN_MOTION":13.10375912,"ECCENTRICITY":0.00014498,"INCLINATION":87.8752,"RA_OF_ASC_NODE":89.4982,"ARG_OF_PERICENTER":88.9497,"MEAN_ANOMALY":271.1797,"EPHEMERIS_TYPE":0,"CLASSIFICATION_TYPE":"U","NORAD_CAT_ID":51646,"ELEMENT_SET_NO":999,"REV_AT_EPOCH":17435,"BSTAR":-0.00071310749,"MEAN_MOTION_DOT":-2.36e-6,"MEAN_MOTION_DDOT":0}]
